{"type":"FeatureCollection","metadata":{"source":"OpenStreetMap","sourceUrl":"https://www.openstreetmap.org/way/25029213","license":"ODbL-1.0","osmDataTimestamp":"2026-06-01T08:52:28Z","generatedAt":"2026-08-17T12:53:44.045Z"},"features":[{"type":"Feature","properties":{"kind":"cemetery"},"geometry":{"type":"Polygon","coordinates":[[[13.186771,52.391542],[13.179748,52.39142],[13.172189,52.391288],[13.17223,52.390603],[13.172284,52.390134],[13.172437,52.389556],[13.172649,52.388974],[13.172917,52.388506],[13.17321,52.387731],[13.173378,52.387064],[13.173349,52.386162],[13.172755,52.384584],[13.172238,52.383798],[13.171976,52.383099],[13.17093,52.381507],[13.170356,52.381572],[13.170382,52.38148],[13.170496,52.381363],[13.170767,52.381267],[13.171988,52.380837],[13.17323,52.380317],[13.175036,52.380707],[13.181169,52.38162],[13.183537,52.382226],[13.191425,52.384342],[13.188742,52.38735],[13.190082,52.387823],[13.189106,52.388874],[13.186771,52.391542]]]}},{"type":"Feature","properties":{"kind":"path","highway":"service"},"geometry":{"type":"LineString","coordinates":[[13.174604,52.380614],[13.174015,52.381627],[13.175512,52.381963]]}},{"type":"Feature","properties":{"kind":"path","highway":"footway"},"geometry":{"type":"LineString","coordinates":[[13.178323,52.389074],[13.178286,52.389201],[13.178197,52.389343],[13.178039,52.389465],[13.177816,52.389555],[13.177552,52.389674],[13.176672,52.389625],[13.176314,52.389618],[13.175625,52.389615],[13.175387,52.389655],[13.175278,52.389617],[13.175098,52.389525],[13.174936,52.389442],[13.174776,52.38936],[13.174409,52.389148],[13.173607,52.38872],[13.17347,52.388664]]}},{"type":"Feature","properties":{"kind":"path","highway":"service"},"geometry":{"type":"LineString","coordinates":[[13.174015,52.381627],[13.173758,52.38199],[13.173487,52.382469],[13.1726,52.384037]]}},{"type":"Feature","properties":{"kind":"path","highway":"footway"},"geometry":{"type":"LineString","coordinates":[[13.180881,52.390835],[13.182014,52.390847],[13.182018,52.390921],[13.182065,52.390974],[13.182155,52.391007],[13.182225,52.391037],[13.182459,52.391033],[13.182745,52.391022],[13.182998,52.390979],[13.183204,52.390969],[13.183424,52.390987]]}},{"type":"Feature","properties":{"kind":"path","highway":"footway"},"geometry":{"type":"LineString","coordinates":[[13.174865,52.387942],[13.174864,52.388186],[13.174887,52.388266],[13.174945,52.388333],[13.175081,52.388425],[13.175274,52.388541],[13.175596,52.388735],[13.17569,52.388792],[13.175745,52.388824],[13.175814,52.388838],[13.175866,52.388827],[13.176159,52.388615]]}},{"type":"Feature","properties":{"kind":"path","highway":"footway"},"geometry":{"type":"LineString","coordinates":[[13.175461,52.386164],[13.175911,52.386165],[13.176666,52.386174],[13.177274,52.386178],[13.17762,52.386187],[13.178488,52.386483],[13.179311,52.386752],[13.179831,52.386912],[13.180443,52.387096]]}},{"type":"Feature","properties":{"kind":"path","highway":"footway"},"geometry":{"type":"LineString","coordinates":[[13.175562,52.384649],[13.175986,52.384655],[13.176727,52.384679],[13.177407,52.384672],[13.178051,52.384636]]}},{"type":"Feature","properties":{"kind":"path","highway":"footway"},"geometry":{"type":"LineString","coordinates":[[13.175495,52.391134],[13.175514,52.390846],[13.175536,52.390566],[13.175359,52.390299],[13.174695,52.389814],[13.174537,52.389747],[13.174024,52.389443],[13.173194,52.38898],[13.172878,52.388902]]}},{"type":"Feature","properties":{"kind":"path","highway":"footway"},"geometry":{"type":"LineString","coordinates":[[13.177247,52.388706],[13.178185,52.388686],[13.179011,52.388737],[13.179236,52.388776],[13.179504,52.388776],[13.179632,52.388766],[13.180195,52.388766],[13.180723,52.388769],[13.181124,52.38875]]}},{"type":"Feature","properties":{"kind":"path","highway":"footway"},"geometry":{"type":"LineString","coordinates":[[13.183485,52.390716],[13.183185,52.390716],[13.183087,52.390667],[13.182918,52.390605],[13.182807,52.390575],[13.182527,52.390588],[13.182201,52.390711],[13.182014,52.390847],[13.182011,52.390552],[13.182019,52.390435]]}},{"type":"Feature","properties":{"kind":"path","highway":"footway"},"geometry":{"type":"LineString","coordinates":[[13.18569,52.389046],[13.18591,52.389049],[13.186044,52.389064],[13.186378,52.389217],[13.186496,52.389267],[13.18703,52.389409],[13.187804,52.389562],[13.188026,52.389654],[13.187373,52.39038],[13.18733,52.390477],[13.187231,52.390596],[13.186832,52.390788]]}},{"type":"Feature","properties":{"kind":"path","highway":"footway"},"geometry":{"type":"LineString","coordinates":[[13.18475,52.390897],[13.184848,52.390891],[13.185387,52.390622],[13.185572,52.390527],[13.185897,52.390365],[13.186209,52.390294],[13.186726,52.390049],[13.186889,52.389972],[13.187804,52.389562],[13.187961,52.389332],[13.188108,52.389235],[13.188706,52.388572],[13.188766,52.388505]]}},{"type":"Feature","properties":{"kind":"path","highway":"footway"},"geometry":{"type":"LineString","coordinates":[[13.1785,52.389085],[13.178444,52.388913],[13.178297,52.388757],[13.178185,52.388686],[13.177984,52.388579],[13.177674,52.388475],[13.177369,52.3884],[13.176994,52.388255],[13.176642,52.388049],[13.176564,52.387992],[13.176562,52.387571]]}},{"type":"Feature","properties":{"kind":"path","highway":"footway"},"geometry":{"type":"LineString","coordinates":[[13.184798,52.389415],[13.185213,52.389426],[13.185402,52.389477],[13.185486,52.38949],[13.185584,52.38951],[13.185647,52.389524],[13.18582,52.389629],[13.185975,52.389693],[13.1862,52.389767],[13.186535,52.389828],[13.186889,52.389972]]}},{"type":"Feature","properties":{"kind":"path","highway":"footway"},"geometry":{"type":"LineString","coordinates":[[13.178486,52.38265],[13.179139,52.38238],[13.179482,52.382249],[13.179762,52.382166],[13.179962,52.382144],[13.180221,52.382176],[13.180692,52.382328],[13.181427,52.382553],[13.182362,52.382852],[13.182774,52.382989],[13.183257,52.383133]]}},{"type":"Feature","properties":{"kind":"path","highway":"service"},"geometry":{"type":"LineString","coordinates":[[13.179338,52.385042],[13.179186,52.385236],[13.179465,52.385325],[13.180973,52.385817],[13.181288,52.385922],[13.18259,52.38635],[13.182625,52.386308]]}},{"type":"Feature","properties":{"kind":"path","highway":"footway"},"geometry":{"type":"LineString","coordinates":[[13.174537,52.389747],[13.174464,52.389782],[13.174327,52.389808],[13.174248,52.389804],[13.174093,52.389765],[13.173996,52.389715],[13.173936,52.389651],[13.173947,52.389558],[13.174024,52.389443],[13.174409,52.389148]]}},{"type":"Feature","properties":{"kind":"path","highway":"service"},"geometry":{"type":"LineString","coordinates":[[13.179753,52.389161],[13.179689,52.389323],[13.179633,52.389422],[13.179569,52.389499],[13.179319,52.389742],[13.179197,52.38983],[13.178838,52.389977],[13.17853,52.390051],[13.178071,52.390109]]}},{"type":"Feature","properties":{"kind":"path","highway":"footway"},"geometry":{"type":"LineString","coordinates":[[13.17847,52.383555],[13.17792,52.383633],[13.177489,52.383786],[13.177315,52.383899],[13.17702,52.384063],[13.176834,52.384237],[13.17675,52.384482],[13.176727,52.384679],[13.176749,52.38483],[13.176737,52.385131],[13.17671,52.385552],[13.176702,52.385676],[13.176666,52.386174],[13.17664,52.386696],[13.176609,52.387097]]}},{"type":"Feature","properties":{"kind":"path","highway":"footway"},"geometry":{"type":"LineString","coordinates":[[13.174214,52.387936],[13.174185,52.388241],[13.17422,52.388328],[13.174746,52.388634],[13.174953,52.388753],[13.175348,52.388981],[13.175452,52.389031],[13.175465,52.389038],[13.175603,52.389122],[13.175834,52.389174],[13.176329,52.389193],[13.176722,52.389202],[13.177576,52.389246]]}},{"type":"Feature","properties":{"kind":"path","highway":"footway"},"geometry":{"type":"LineString","coordinates":[[13.178489,52.384142],[13.178554,52.384164],[13.178978,52.384302],[13.17973,52.384541],[13.180018,52.384633],[13.180939,52.384928],[13.181525,52.385124],[13.182658,52.385415],[13.183262,52.385621],[13.183864,52.38583],[13.183998,52.385879],[13.184133,52.385927],[13.184603,52.386079],[13.185052,52.386227]]}},{"type":"Feature","properties":{"kind":"path","highway":"footway"},"geometry":{"type":"LineString","coordinates":[[13.185803,52.38603],[13.185551,52.386049],[13.185332,52.385971],[13.184818,52.385825],[13.184342,52.385674],[13.184068,52.385592],[13.182599,52.385122],[13.181788,52.384844],[13.181186,52.384648],[13.179974,52.384258],[13.179225,52.384014],[13.178787,52.383874],[13.178625,52.383846],[13.178494,52.38384]]}},{"type":"Feature","properties":{"kind":"path","highway":"footway"},"geometry":{"type":"LineString","coordinates":[[13.185035,52.39034],[13.185387,52.390622],[13.186044,52.391133],[13.186403,52.391403],[13.186452,52.391419],[13.186497,52.391421],[13.186547,52.391419],[13.186562,52.391413],[13.186598,52.391392],[13.186609,52.39137],[13.186609,52.391339],[13.186592,52.391318],[13.186518,52.39126],[13.18625,52.391036],[13.185572,52.390527],[13.185254,52.390254]]}},{"type":"Feature","properties":{"kind":"path","highway":"footway"},"geometry":{"type":"LineString","coordinates":[[13.175444,52.387083],[13.175871,52.387087],[13.176342,52.387094],[13.176609,52.387097],[13.176946,52.387103],[13.17731,52.387149],[13.177773,52.387277],[13.177818,52.387296],[13.178075,52.387368],[13.17846,52.387371],[13.178685,52.387368],[13.179,52.387397],[13.179429,52.387488],[13.180199,52.387672]]}},{"type":"Feature","properties":{"kind":"path","highway":"footway"},"geometry":{"type":"LineString","coordinates":[[13.183543,52.389536],[13.183343,52.389765],[13.183181,52.389863],[13.183016,52.389993],[13.182933,52.39004],[13.182912,52.390109],[13.182929,52.390147],[13.182986,52.390159],[13.183055,52.390157],[13.183118,52.390127],[13.183165,52.390079],[13.183186,52.390058],[13.18334,52.389899],[13.183421,52.389798],[13.183558,52.389705],[13.183658,52.389584]]}},{"type":"Feature","properties":{"kind":"path","highway":"service"},"geometry":{"type":"LineString","coordinates":[[13.177117,52.390175],[13.176605,52.39019],[13.176278,52.390195],[13.176087,52.390199],[13.17599,52.390195],[13.175885,52.390203],[13.17565,52.390233],[13.175359,52.390299],[13.174686,52.390542],[13.174244,52.390712],[13.173824,52.390857],[13.17345,52.390993],[13.173415,52.390997],[13.173266,52.391013],[13.172746,52.391002],[13.172588,52.391]]}},{"type":"Feature","properties":{"kind":"path","highway":"footway"},"geometry":{"type":"LineString","coordinates":[[13.173936,52.389651],[13.173578,52.389891],[13.172903,52.390341],[13.172686,52.390474],[13.172645,52.390524],[13.17264,52.390573],[13.172703,52.39063],[13.172826,52.390651],[13.172938,52.390627],[13.173183,52.390485],[13.173858,52.390073],[13.174248,52.389804]]}},{"type":"Feature","properties":{"kind":"path","highway":"footway"},"geometry":{"type":"LineString","coordinates":[[13.182949,52.385941],[13.183262,52.385621]]}},{"type":"Feature","properties":{"kind":"path","highway":"footway"},"geometry":{"type":"LineString","coordinates":[[13.174796,52.385576],[13.174829,52.385124]]}},{"type":"Feature","properties":{"kind":"path","highway":"footway"},"geometry":{"type":"LineString","coordinates":[[13.185556,52.386785],[13.185479,52.386473]]}},{"type":"Feature","properties":{"kind":"path","highway":"footway"},"geometry":{"type":"LineString","coordinates":[[13.179518,52.384813],[13.17973,52.384541]]}},{"type":"Feature","properties":{"kind":"path","highway":"footway"},"geometry":{"type":"LineString","coordinates":[[13.179699,52.390614],[13.179677,52.391219]]}},{"type":"Feature","properties":{"kind":"path","highway":"footway"},"geometry":{"type":"LineString","coordinates":[[13.173509,52.387913],[13.17347,52.388664]]}},{"type":"Feature","properties":{"kind":"path","highway":"footway"},"geometry":{"type":"LineString","coordinates":[[13.18703,52.389409],[13.186889,52.389972]]}},{"type":"Feature","properties":{"kind":"path","highway":"footway"},"geometry":{"type":"LineString","coordinates":[[13.183936,52.386906],[13.184199,52.386973],[13.184725,52.386984]]}},{"type":"Feature","properties":{"kind":"path","highway":"footway"},"geometry":{"type":"LineString","coordinates":[[13.182969,52.388424],[13.183232,52.388676]]}},{"type":"Feature","properties":{"kind":"path","highway":"footway"},"geometry":{"type":"LineString","coordinates":[[13.178702,52.38935],[13.178729,52.389096]]}},{"type":"Feature","properties":{"kind":"path","highway":"footway"},"geometry":{"type":"LineString","coordinates":[[13.174998,52.390831],[13.175514,52.390846]]}},{"type":"Feature","properties":{"kind":"path","highway":"footway"},"geometry":{"type":"LineString","coordinates":[[13.185708,52.390204],[13.185897,52.390365]]}},{"type":"Feature","properties":{"kind":"path","highway":"footway"},"geometry":{"type":"LineString","coordinates":[[13.17849,52.390247],[13.178811,52.390626]]}},{"type":"Feature","properties":{"kind":"path","highway":"footway"},"geometry":{"type":"LineString","coordinates":[[13.174789,52.385647],[13.17516,52.385655],[13.175475,52.385661]]}},{"type":"Feature","properties":{"kind":"path","highway":"footway"},"geometry":{"type":"LineString","coordinates":[[13.183672,52.386223],[13.183998,52.385879]]}},{"type":"Feature","properties":{"kind":"path","highway":"footway"},"geometry":{"type":"LineString","coordinates":[[13.179699,52.390614],[13.179709,52.39012]]}},{"type":"Feature","properties":{"kind":"path","highway":"footway"},"geometry":{"type":"LineString","coordinates":[[13.185333,52.386184],[13.185551,52.386049]]}},{"type":"Feature","properties":{"kind":"path","highway":"footway"},"geometry":{"type":"LineString","coordinates":[[13.179134,52.390555],[13.179699,52.390614]]}},{"type":"Feature","properties":{"kind":"path","highway":"footway"},"geometry":{"type":"LineString","coordinates":[[13.187186,52.389231],[13.18703,52.389409]]}},{"type":"Feature","properties":{"kind":"path","highway":"footway"},"geometry":{"type":"LineString","coordinates":[[13.174762,52.386345],[13.174789,52.385647],[13.174796,52.385576]]}},{"type":"Feature","properties":{"kind":"path","highway":"footway"},"geometry":{"type":"LineString","coordinates":[[13.185277,52.389933],[13.185486,52.38949]]}},{"type":"Feature","properties":{"kind":"path","highway":"footway"},"geometry":{"type":"LineString","coordinates":[[13.184848,52.390891],[13.185013,52.390924],[13.185162,52.390982],[13.185373,52.39116],[13.185611,52.391339]]}},{"type":"Feature","properties":{"kind":"path","highway":"footway"},"geometry":{"type":"LineString","coordinates":[[13.181621,52.389339],[13.181782,52.389362],[13.181948,52.389386]]}},{"type":"Feature","properties":{"kind":"path","highway":"footway"},"geometry":{"type":"LineString","coordinates":[[13.187319,52.388033],[13.187207,52.388162],[13.18706,52.388355],[13.186961,52.388546],[13.186932,52.38863],[13.18671,52.38892],[13.186616,52.389035],[13.186378,52.389217],[13.18582,52.389629],[13.185583,52.389788],[13.18532,52.389914],[13.185277,52.389933],[13.185201,52.389969],[13.184648,52.390251],[13.184467,52.39033],[13.184323,52.390392],[13.184093,52.390458],[13.183553,52.390456],[13.182743,52.390441],[13.182368,52.390441],[13.182143,52.390442]]}},{"type":"Feature","properties":{"kind":"path","highway":"footway"},"geometry":{"type":"LineString","coordinates":[[13.179465,52.385325],[13.179211,52.385638],[13.178837,52.38609],[13.178488,52.386483],[13.178176,52.386862],[13.177856,52.387197],[13.177773,52.387277],[13.17745,52.387631],[13.177368,52.387734],[13.177194,52.387966],[13.176994,52.388255],[13.17676,52.388538],[13.176573,52.388795],[13.176422,52.388864],[13.176359,52.388963],[13.176329,52.389193],[13.176314,52.389618],[13.176278,52.390195]]}},{"type":"Feature","properties":{"kind":"path","highway":"footway"},"geometry":{"type":"LineString","coordinates":[[13.1824,52.384114],[13.182204,52.384355],[13.181788,52.384844],[13.181525,52.385124],[13.181305,52.385409],[13.180973,52.385817],[13.180837,52.385979],[13.180788,52.386182],[13.180787,52.386363],[13.180714,52.386615],[13.180677,52.386679],[13.180604,52.386797],[13.180443,52.387096],[13.180257,52.387407],[13.180199,52.387672],[13.18016,52.387893],[13.180151,52.388416],[13.18015,52.388463],[13.180195,52.388766],[13.180242,52.388945],[13.180248,52.389047],[13.180286,52.389091],[13.180286,52.389173]]}},{"type":"Feature","properties":{"kind":"path","highway":"footway"},"geometry":{"type":"LineString","coordinates":[[13.179464,52.38303],[13.179182,52.383378],[13.178787,52.383874],[13.178554,52.384164],[13.178384,52.384347]]}},{"type":"Feature","properties":{"kind":"path","highway":"footway"},"geometry":{"type":"LineString","coordinates":[[13.179464,52.38303],[13.179748,52.382719],[13.180221,52.382176]]}},{"type":"Feature","properties":{"kind":"path","highway":"footway"},"geometry":{"type":"LineString","coordinates":[[13.17418,52.385635],[13.174789,52.385647]]}},{"type":"Feature","properties":{"kind":"path","highway":"footway"},"geometry":{"type":"LineString","coordinates":[[13.1796,52.388425],[13.179632,52.388766],[13.179616,52.388862]]}},{"type":"Feature","properties":{"kind":"path","highway":"footway"},"geometry":{"type":"LineString","coordinates":[[13.187391,52.388051],[13.187603,52.387804],[13.187772,52.38767]]}},{"type":"Feature","properties":{"kind":"path","highway":"footway"},"geometry":{"type":"LineString","coordinates":[[13.173945,52.386345],[13.17396,52.386312],[13.173985,52.386292]]}},{"type":"Feature","properties":{"kind":"path","highway":"footway"},"geometry":{"type":"LineString","coordinates":[[13.179426,52.387893],[13.179445,52.388424]]}},{"type":"Feature","properties":{"kind":"path","highway":"footway"},"geometry":{"type":"LineString","coordinates":[[13.187373,52.39038],[13.186889,52.389972]]}},{"type":"Feature","properties":{"kind":"path","highway":"footway"},"geometry":{"type":"LineString","coordinates":[[13.175446,52.387958],[13.175842,52.38799],[13.176564,52.387992]]}},{"type":"Feature","properties":{"kind":"path","highway":"footway"},"geometry":{"type":"LineString","coordinates":[[13.17762,52.386187],[13.177967,52.385807],[13.178356,52.385349]]}},{"type":"Feature","properties":{"kind":"path","highway":"footway"},"geometry":{"type":"LineString","coordinates":[[13.173194,52.38898],[13.173607,52.38872],[13.17422,52.388328]]}},{"type":"Feature","properties":{"kind":"path","highway":"footway"},"geometry":{"type":"LineString","coordinates":[[13.177681,52.389749],[13.178388,52.389779],[13.179197,52.38983]]}},{"type":"Feature","properties":{"kind":"path","highway":"footway"},"geometry":{"type":"LineString","coordinates":[[13.184701,52.387479],[13.185115,52.387483],[13.185234,52.387481]]}},{"type":"Feature","properties":{"kind":"path","highway":"footway"},"geometry":{"type":"LineString","coordinates":[[13.184015,52.388282],[13.184613,52.388284],[13.185307,52.388315]]}},{"type":"Feature","properties":{"kind":"path","highway":"footway"},"geometry":{"type":"LineString","coordinates":[[13.185548,52.389339],[13.185582,52.389269],[13.18569,52.389046]]}},{"type":"Feature","properties":{"kind":"path","highway":"footway"},"geometry":{"type":"LineString","coordinates":[[13.178957,52.389101],[13.179011,52.388737],[13.179081,52.388435]]}},{"type":"Feature","properties":{"kind":"path","highway":"footway"},"geometry":{"type":"LineString","coordinates":[[13.179699,52.390614],[13.180372,52.390608],[13.180886,52.39062]]}},{"type":"Feature","properties":{"kind":"path","highway":"footway"},"geometry":{"type":"LineString","coordinates":[[13.175828,52.39115],[13.17587,52.390598],[13.175885,52.390203]]}},{"type":"Feature","properties":{"kind":"path","highway":"footway"},"geometry":{"type":"LineString","coordinates":[[13.175413,52.387546],[13.175843,52.387555],[13.176562,52.387571]]}},{"type":"Feature","properties":{"kind":"path","highway":"footway"},"geometry":{"type":"LineString","coordinates":[[13.184582,52.388527],[13.184746,52.388666],[13.184723,52.389035]]}},{"type":"Feature","properties":{"kind":"path","highway":"footway"},"geometry":{"type":"LineString","coordinates":[[13.187923,52.387975],[13.18799,52.387862],[13.18809,52.387768]]}},{"type":"Feature","properties":{"kind":"path","highway":"footway"},"geometry":{"type":"LineString","coordinates":[[13.185213,52.389426],[13.185228,52.389271],[13.185244,52.389042]]}},{"type":"Feature","properties":{"kind":"path","highway":"footway"},"geometry":{"type":"LineString","coordinates":[[13.186099,52.389906],[13.186399,52.38995],[13.186726,52.390049]]}},{"type":"Feature","properties":{"kind":"path","highway":"footway"},"geometry":{"type":"LineString","coordinates":[[13.184833,52.389273],[13.185228,52.389271],[13.185582,52.389269]]}},{"type":"Feature","properties":{"kind":"path","highway":"footway"},"geometry":{"type":"LineString","coordinates":[[13.186832,52.390788],[13.186209,52.390294],[13.185882,52.390022]]}},{"type":"Feature","properties":{"kind":"path","highway":"footway"},"geometry":{"type":"LineString","coordinates":[[13.183658,52.389584],[13.183726,52.389061],[13.183817,52.388415]]}},{"type":"Feature","properties":{"kind":"path","highway":"footway"},"geometry":{"type":"LineString","coordinates":[[13.179134,52.390555],[13.179158,52.390103],[13.179197,52.38983]]}},{"type":"Feature","properties":{"kind":"path","highway":"footway"},"geometry":{"type":"LineString","coordinates":[[13.180248,52.389047],[13.180726,52.38889]]}},{"type":"Feature","properties":{"kind":"path","highway":"footway"},"geometry":{"type":"LineString","coordinates":[[13.182225,52.391037],[13.182218,52.391256]]}},{"type":"Feature","properties":{"kind":"path","highway":"footway"},"geometry":{"type":"LineString","coordinates":[[13.18209,52.388375],[13.182302,52.388084],[13.182419,52.387833]]}},{"type":"Feature","properties":{"kind":"path","highway":"footway"},"geometry":{"type":"LineString","coordinates":[[13.178436,52.383191],[13.178088,52.383227],[13.177698,52.383302],[13.177109,52.383518],[13.176963,52.383577],[13.176644,52.383746],[13.176376,52.383958],[13.176275,52.384059],[13.176077,52.384366],[13.175997,52.384592],[13.175986,52.384655],[13.175962,52.385128],[13.175941,52.385535],[13.175935,52.385664],[13.175911,52.386165],[13.175883,52.386683],[13.175871,52.387087],[13.175843,52.387555],[13.175842,52.38799],[13.176136,52.388189],[13.176398,52.388372],[13.17676,52.388538],[13.177147,52.388636],[13.177247,52.388706],[13.177407,52.388815],[13.177487,52.388977]]}},{"type":"Feature","properties":{"kind":"path","highway":"footway"},"geometry":{"type":"LineString","coordinates":[[13.177904,52.39065],[13.177929,52.390338]]}},{"type":"Feature","properties":{"kind":"path","highway":"footway"},"geometry":{"type":"LineString","coordinates":[[13.180504,52.38183],[13.180989,52.381978],[13.181728,52.382199]]}},{"type":"Feature","properties":{"kind":"path","highway":"footway"},"geometry":{"type":"LineString","coordinates":[[13.179569,52.389499],[13.179713,52.389733],[13.17975,52.389886],[13.179709,52.39012]]}},{"type":"Feature","properties":{"kind":"path","highway":"footway"},"geometry":{"type":"LineString","coordinates":[[13.185285,52.390045],[13.185409,52.390049],[13.185561,52.390093],[13.185584,52.390107],[13.185648,52.390157],[13.185708,52.390204]]}},{"type":"Feature","properties":{"kind":"path","highway":"footway"},"geometry":{"type":"LineString","coordinates":[[13.183864,52.38583],[13.184068,52.385592],[13.184523,52.385064],[13.184774,52.384749]]}},{"type":"Feature","properties":{"kind":"path","highway":"footway"},"geometry":{"type":"LineString","coordinates":[[13.177862,52.391191],[13.177896,52.390924],[13.177904,52.39065]]}},{"type":"Feature","properties":{"kind":"path","highway":"footway"},"geometry":{"type":"LineString","coordinates":[[13.17545,52.386755],[13.17509,52.386746],[13.175107,52.386589],[13.175447,52.386599]]}},{"type":"Feature","properties":{"kind":"path","highway":"footway"},"geometry":{"type":"LineString","coordinates":[[13.172703,52.39063],[13.172591,52.390705],[13.172588,52.391]]}},{"type":"Feature","properties":{"kind":"path","highway":"service"},"geometry":{"type":"LineString","coordinates":[[13.187162,52.387998],[13.187001,52.387862],[13.185921,52.387177]]}},{"type":"Feature","properties":{"kind":"path","highway":"footway"},"geometry":{"type":"LineString","coordinates":[[13.178978,52.384302],[13.179225,52.384014],[13.179651,52.383532],[13.179955,52.383197]]}},{"type":"Feature","properties":{"kind":"path","highway":"footway"},"geometry":{"type":"LineString","coordinates":[[13.185611,52.391339],[13.186044,52.391133],[13.18625,52.391036],[13.186832,52.390788]]}},{"type":"Feature","properties":{"kind":"path","highway":"footway"},"geometry":{"type":"LineString","coordinates":[[13.187737,52.388158],[13.187923,52.387975],[13.188242,52.388065],[13.188062,52.388268]]}},{"type":"Feature","properties":{"kind":"path","highway":"footway"},"geometry":{"type":"LineString","coordinates":[[13.175451,52.38667],[13.175883,52.386683],[13.17664,52.386696],[13.177573,52.386707]]}},{"type":"Feature","properties":{"kind":"path","highway":"footway"},"geometry":{"type":"LineString","coordinates":[[13.180897,52.390405],[13.181891,52.390432],[13.182019,52.390435],[13.182143,52.390442]]}},{"type":"Feature","properties":{"kind":"path","highway":"footway"},"geometry":{"type":"LineString","coordinates":[[13.182828,52.388975],[13.183232,52.388676],[13.183817,52.388415],[13.183563,52.388158]]}},{"type":"Feature","properties":{"kind":"path","highway":"footway"},"geometry":{"type":"LineString","coordinates":[[13.179073,52.387118],[13.179311,52.386752],[13.17964,52.386343],[13.179997,52.385907]]}},{"type":"Feature","properties":{"kind":"path","highway":"footway"},"geometry":{"type":"LineString","coordinates":[[13.182433,52.387248],[13.182492,52.3872],[13.182567,52.387186],[13.182783,52.387208]]}},{"type":"Feature","properties":{"kind":"path","highway":"footway"},"geometry":{"type":"LineString","coordinates":[[13.176033,52.390867],[13.177076,52.390907],[13.177896,52.390924],[13.178688,52.390947]]}},{"type":"Feature","properties":{"kind":"path","highway":"footway"},"geometry":{"type":"LineString","coordinates":[[13.178388,52.389779],[13.178429,52.389334],[13.178702,52.38935],[13.179633,52.389422]]}},{"type":"Feature","properties":{"kind":"path","highway":"footway"},"geometry":{"type":"LineString","coordinates":[[13.184133,52.385927],[13.184342,52.385674],[13.1848,52.385149],[13.185059,52.384843]]}},{"type":"Feature","properties":{"kind":"path","highway":"footway"},"geometry":{"type":"LineString","coordinates":[[13.183969,52.388664],[13.184368,52.388671],[13.184746,52.388666],[13.1851,52.388672]]}},{"type":"Feature","properties":{"kind":"path","highway":"footway"},"geometry":{"type":"LineString","coordinates":[[13.180343,52.391228],[13.180372,52.390608],[13.180375,52.390306],[13.180253,52.390135],[13.180019,52.389992]]}},{"type":"Feature","properties":{"kind":"path","highway":"footway"},"geometry":{"type":"LineString","coordinates":[[13.176087,52.390199],[13.176078,52.390284],[13.176056,52.390604],[13.176033,52.390867],[13.176017,52.391152]]}},{"type":"Feature","properties":{"kind":"path","highway":"footway"},"geometry":{"type":"LineString","coordinates":[[13.184554,52.387298],[13.184588,52.387274],[13.184647,52.387249],[13.184717,52.387249],[13.185233,52.387253]]}},{"type":"Feature","properties":{"kind":"path","highway":"footway"},"geometry":{"type":"LineString","coordinates":[[13.183936,52.386906],[13.183766,52.386902],[13.18302,52.386656],[13.182452,52.386503],[13.181615,52.386231],[13.181157,52.386082],[13.180837,52.385979]]}},{"type":"Feature","properties":{"kind":"path","highway":"footway"},"geometry":{"type":"LineString","coordinates":[[13.185584,52.38951],[13.185642,52.389348],[13.185548,52.389339],[13.18545,52.38933],[13.185402,52.389477]]}},{"type":"Feature","properties":{"kind":"path","highway":"footway"},"geometry":{"type":"LineString","coordinates":[[13.184523,52.385064],[13.1848,52.385149],[13.185266,52.385297],[13.185733,52.385445]]}},{"type":"Feature","properties":{"kind":"path","highway":"footway"},"geometry":{"type":"LineString","coordinates":[[13.177117,52.390175],[13.177122,52.39033],[13.177087,52.390642],[13.177076,52.390907],[13.177038,52.391164]]}},{"type":"Feature","properties":{"kind":"path","highway":"footway"},"geometry":{"type":"LineString","coordinates":[[13.177857,52.389884],[13.178071,52.390109],[13.178256,52.390281],[13.178558,52.39065],[13.178688,52.390947],[13.17883,52.391206]]}},{"type":"Feature","properties":{"kind":"path","highway":"footway"},"geometry":{"type":"LineString","coordinates":[[13.180704,52.385208],[13.180939,52.384928],[13.181186,52.384648],[13.181631,52.384165],[13.181926,52.383828]]}},{"type":"Feature","properties":{"kind":"path","highway":"footway"},"geometry":{"type":"LineString","coordinates":[[13.181728,52.382199],[13.182286,52.382369],[13.18267,52.382491],[13.18309,52.382624],[13.183888,52.38285],[13.184019,52.382906],[13.184125,52.382989]]}},{"type":"Feature","properties":{"kind":"path","highway":"footway"},"geometry":{"type":"LineString","coordinates":[[13.185341,52.386967],[13.185417,52.386857],[13.185556,52.386785],[13.185812,52.386778]]}},{"type":"Feature","properties":{"kind":"path","highway":"footway"},"geometry":{"type":"LineString","coordinates":[[13.175475,52.385661],[13.175935,52.385664],[13.176702,52.385676],[13.177283,52.385687],[13.177523,52.385687]]}},{"type":"Feature","properties":{"kind":"path","highway":"footway"},"geometry":{"type":"LineString","coordinates":[[13.18268,52.389608],[13.182665,52.389652],[13.182698,52.3897],[13.182946,52.389798],[13.183181,52.389863]]}},{"type":"Feature","properties":{"kind":"path","highway":"footway"},"geometry":{"type":"LineString","coordinates":[[13.180656,52.387983],[13.180698,52.388484],[13.180723,52.388769],[13.180726,52.38889],[13.180723,52.389003],[13.180639,52.389173]]}},{"type":"Feature","properties":{"kind":"path","highway":"footway"},"geometry":{"type":"LineString","coordinates":[[13.184175,52.387931],[13.183884,52.38758],[13.183914,52.387282],[13.183936,52.386906],[13.184044,52.386761]]}},{"type":"Feature","properties":{"kind":"path","highway":"service"},"geometry":{"type":"LineString","coordinates":[[13.185717,52.387095],[13.185701,52.387086],[13.185341,52.386967],[13.184859,52.386799],[13.184547,52.386694]]}},{"type":"Feature","properties":{"kind":"path","highway":"footway"},"geometry":{"type":"LineString","coordinates":[[13.183857,52.389597],[13.184219,52.389453],[13.184307,52.389418],[13.184693,52.389349],[13.184813,52.389351]]}},{"type":"Feature","properties":{"kind":"path","highway":"footway"},"geometry":{"type":"LineString","coordinates":[[13.181716,52.386993],[13.182433,52.387248],[13.18246,52.387298],[13.182551,52.387303],[13.182783,52.387264]]}},{"type":"Feature","properties":{"kind":"path","highway":"footway"},"geometry":{"type":"LineString","coordinates":[[13.176573,52.388795],[13.176468,52.389003],[13.176736,52.389068],[13.176722,52.389202],[13.176672,52.389625],[13.176605,52.39019]]}},{"type":"Feature","properties":{"kind":"path","highway":"footway"},"geometry":{"type":"LineString","coordinates":[[13.18259,52.38635],[13.182452,52.386503],[13.1822,52.386652],[13.182088,52.386728],[13.181885,52.386915],[13.181716,52.386993]]}},{"type":"Feature","properties":{"kind":"path","highway":"footway"},"geometry":{"type":"LineString","coordinates":[[13.177087,52.390642],[13.177904,52.39065],[13.178558,52.39065],[13.178811,52.390626]]}},{"type":"Feature","properties":{"kind":"path","highway":"footway"},"geometry":{"type":"LineString","coordinates":[[13.177003,52.388909],[13.177147,52.388636],[13.177369,52.3884],[13.177645,52.388067],[13.177717,52.387937],[13.177787,52.387788]]}},{"type":"Feature","properties":{"kind":"path","highway":"footway"},"geometry":{"type":"LineString","coordinates":[[13.183862,52.389706],[13.183857,52.389597],[13.183922,52.38906],[13.183969,52.388664],[13.184015,52.388282],[13.18404,52.387976]]}},{"type":"Feature","properties":{"kind":"path","highway":"footway"},"geometry":{"type":"LineString","coordinates":[[13.184219,52.389453],[13.184307,52.389048],[13.184368,52.388671],[13.184582,52.388527],[13.184613,52.388284],[13.184698,52.387791]]}},{"type":"Feature","properties":{"kind":"path","highway":"footway"},"geometry":{"type":"LineString","coordinates":[[13.18569,52.389046],[13.185865,52.388643],[13.186309,52.388204],[13.186606,52.387942],[13.18666,52.38789]]}},{"type":"Feature","properties":{"kind":"path","highway":"footway"},"geometry":{"type":"LineString","coordinates":[[13.188766,52.388505],[13.188818,52.388436],[13.188537,52.388349],[13.188478,52.388411],[13.188418,52.388484],[13.188706,52.388572]]}},{"type":"Feature","properties":{"kind":"path","highway":"footway"},"geometry":{"type":"LineString","coordinates":[[13.184306,52.386436],[13.184603,52.386079],[13.184818,52.385825],[13.185266,52.385297]]}},{"type":"Feature","properties":{"kind":"path","highway":"footway"},"geometry":{"type":"LineString","coordinates":[[13.185648,52.390157],[13.185716,52.390111],[13.185882,52.390022],[13.186099,52.389906],[13.1862,52.389767],[13.186496,52.389267]]}},{"type":"Feature","properties":{"kind":"path","highway":"service"},"geometry":{"type":"LineString","coordinates":[[13.178411,52.3828],[13.178436,52.383191],[13.178452,52.383306],[13.17847,52.383555],[13.178494,52.38384],[13.178489,52.384142],[13.178384,52.384347]]}},{"type":"Feature","properties":{"kind":"path","highway":"footway"},"geometry":{"type":"LineString","coordinates":[[13.180868,52.391232],[13.180881,52.390835],[13.180886,52.39062],[13.180897,52.390405],[13.180922,52.390049],[13.180944,52.389811]]}},{"type":"Feature","properties":{"kind":"path","highway":"service"},"geometry":{"type":"LineString","coordinates":[[13.182649,52.384075],[13.183327,52.384271],[13.18383,52.384428],[13.184774,52.384749],[13.185059,52.384843],[13.185304,52.384933],[13.185446,52.385011],[13.185565,52.385101]]}},{"type":"Feature","properties":{"kind":"path","highway":"footway"},"geometry":{"type":"LineString","coordinates":[[13.176078,52.390284],[13.177122,52.39033],[13.177929,52.390338],[13.178256,52.390281],[13.17849,52.390247],[13.178498,52.390096]]}},{"type":"Feature","properties":{"kind":"path","highway":"footway"},"geometry":{"type":"LineString","coordinates":[[13.173948,52.391094],[13.173957,52.390958],[13.173824,52.390857],[13.173183,52.390485],[13.172903,52.390341]]}},{"type":"Feature","properties":{"kind":"path","highway":"footway"},"geometry":{"type":"LineString","coordinates":[[13.188242,52.388065],[13.188369,52.387874],[13.18809,52.387768],[13.187772,52.38767],[13.187506,52.387653],[13.187001,52.387862]]}},{"type":"Feature","properties":{"kind":"path","highway":"footway"},"geometry":{"type":"LineString","coordinates":[[13.180174,52.386519],[13.179831,52.386912],[13.179598,52.387251],[13.179429,52.387488],[13.179426,52.387893]]}},{"type":"Feature","properties":{"kind":"path","highway":"footway"},"geometry":{"type":"LineString","coordinates":[[13.180582,52.389173],[13.180398,52.389493],[13.180117,52.389818],[13.180019,52.389992],[13.179971,52.390232],[13.179851,52.390467],[13.179699,52.390614]]}},{"type":"Feature","properties":{"kind":"path","highway":"service"},"geometry":{"type":"LineString","coordinates":[[13.178524,52.382731],[13.179464,52.38303],[13.179955,52.383197],[13.18067,52.383422],[13.181615,52.383728],[13.181926,52.383828],[13.182356,52.38396]]}},{"type":"Feature","properties":{"kind":"path","highway":"footway"},"geometry":{"type":"LineString","coordinates":[[13.184547,52.386694],[13.18447,52.38675],[13.184381,52.386784],[13.184277,52.386801],[13.184044,52.386761],[13.183163,52.386477],[13.182625,52.386308]]}},{"type":"Feature","properties":{"kind":"path","highway":"footway"},"geometry":{"type":"LineString","coordinates":[[13.179426,52.387893],[13.18016,52.387893],[13.180387,52.387947],[13.180656,52.387983],[13.180883,52.387987],[13.181521,52.387945]]}},{"type":"Feature","properties":{"kind":"path","highway":"footway"},"geometry":{"type":"LineString","coordinates":[[13.181112,52.388584],[13.181583,52.38849],[13.18209,52.388375],[13.182414,52.388672],[13.182828,52.388975],[13.182842,52.389052],[13.182815,52.389104],[13.182685,52.389289]]}},{"type":"Feature","properties":{"kind":"path","highway":"footway"},"geometry":{"type":"LineString","coordinates":[[13.182053,52.389409],[13.182241,52.389466],[13.182378,52.389509],[13.18268,52.389608],[13.183037,52.389698],[13.183343,52.389765],[13.183421,52.389798],[13.183662,52.389913]]}},{"type":"Feature","properties":{"kind":"path","highway":"footway"},"geometry":{"type":"LineString","coordinates":[[13.17973,52.384541],[13.179974,52.384258],[13.180392,52.383765],[13.18067,52.383422],[13.180935,52.383111],[13.181427,52.382553],[13.181728,52.382199]]}},{"type":"Feature","properties":{"kind":"path","highway":"service"},"geometry":{"type":"LineString","coordinates":[[13.179338,52.385042],[13.178106,52.384654],[13.178051,52.384636]]}},{"type":"Feature","properties":{"kind":"path","highway":"footway"},"geometry":{"type":"LineString","coordinates":[[13.185218,52.388475],[13.185865,52.388643],[13.18671,52.38892]]}},{"type":"Feature","properties":{"kind":"path","highway":"footway"},"geometry":{"type":"LineString","coordinates":[[13.178465,52.386964],[13.17846,52.387371],[13.178588,52.387699],[13.178579,52.387875],[13.178273,52.388216],[13.178183,52.38832],[13.177984,52.388579]]}},{"type":"Feature","properties":{"kind":"path","highway":"footway"},"geometry":{"type":"LineString","coordinates":[[13.17587,52.390598],[13.176056,52.390604],[13.177087,52.390642]]}},{"type":"Feature","properties":{"kind":"path","highway":"footway"},"geometry":{"type":"LineString","coordinates":[[13.180922,52.390049],[13.181907,52.390068],[13.182384,52.390071],[13.182734,52.390059],[13.182933,52.39004],[13.183165,52.390079],[13.18362,52.390114]]}},{"type":"Feature","properties":{"kind":"path","highway":"footway"},"geometry":{"type":"LineString","coordinates":[[13.184547,52.386694],[13.184547,52.386648],[13.184533,52.386594],[13.18449,52.386519],[13.184306,52.386436],[13.183672,52.386223],[13.182911,52.385984]]}},{"type":"Feature","properties":{"kind":"path","highway":"footway"},"geometry":{"type":"LineString","coordinates":[[13.17763,52.388997],[13.177576,52.389246],[13.177538,52.389452],[13.177552,52.389674],[13.177681,52.389749],[13.177857,52.389884]]}},{"type":"Feature","properties":{"kind":"path","highway":"service"},"geometry":{"type":"LineString","coordinates":[[13.185815,52.387193],[13.185808,52.387209],[13.185602,52.38777],[13.185511,52.387987],[13.185307,52.388315],[13.185218,52.388475],[13.1851,52.388672],[13.185028,52.388791],[13.184913,52.389032],[13.184862,52.389153],[13.184833,52.389273],[13.184813,52.389351],[13.184798,52.389415],[13.18484,52.389571],[13.184899,52.389685],[13.185201,52.389969],[13.185285,52.390045],[13.185306,52.390124],[13.185293,52.390193],[13.185254,52.390254],[13.185197,52.390292],[13.185124,52.390322],[13.185035,52.39034],[13.184915,52.390345],[13.184793,52.390319],[13.184715,52.390292],[13.184648,52.390251],[13.184621,52.390237],[13.1842,52.389909],[13.184038,52.389793],[13.183862,52.389706],[13.183658,52.389584],[13.183543,52.389536],[13.183228,52.389427],[13.182685,52.389289],[13.182366,52.389193],[13.181846,52.389055],[13.181714,52.388976]]}},{"type":"Feature","properties":{"kind":"path","highway":"footway"},"geometry":{"type":"LineString","coordinates":[[13.182783,52.387264],[13.183914,52.387282],[13.184554,52.387298],[13.184556,52.387351],[13.18462,52.387383],[13.184716,52.387385],[13.185238,52.387388]]}},{"type":"Feature","properties":{"kind":"path","highway":"footway"},"geometry":{"type":"LineString","coordinates":[[13.176749,52.38483],[13.177679,52.385112],[13.178356,52.385349],[13.179211,52.385638],[13.179997,52.385907],[13.180788,52.386182],[13.181036,52.386268],[13.181462,52.386415],[13.181496,52.386426],[13.1822,52.386652]]}},{"type":"Feature","properties":{"kind":"path","highway":"footway"},"geometry":{"type":"LineString","coordinates":[[13.178498,52.390096],[13.179158,52.390103],[13.179709,52.39012],[13.180019,52.389992],[13.180594,52.38973],[13.180643,52.389735],[13.180777,52.389732],[13.180865,52.389789],[13.180944,52.389811]]}},{"type":"Feature","properties":{"kind":"path","highway":"footway"},"geometry":{"type":"LineString","coordinates":[[13.182815,52.389104],[13.183726,52.389061],[13.183922,52.38906],[13.184307,52.389048],[13.184723,52.389035],[13.184913,52.389032],[13.185244,52.389042],[13.18569,52.389046]]}},{"type":"Feature","properties":{"kind":"path","highway":"footway"},"geometry":{"type":"LineString","coordinates":[[13.177786,52.385748],[13.177967,52.385807],[13.178837,52.38609],[13.17964,52.386343],[13.180174,52.386519],[13.180677,52.386679],[13.181131,52.386811],[13.181634,52.386968],[13.181716,52.386993]]}},{"type":"Feature","properties":{"kind":"path","highway":"footway"},"geometry":{"type":"LineString","coordinates":[[13.187927,52.388224],[13.187455,52.388787],[13.187134,52.389193],[13.187186,52.389231],[13.187263,52.389234],[13.1876,52.38888]]}},{"type":"Feature","properties":{"kind":"path","highway":"service"},"geometry":{"type":"LineString","coordinates":[[13.185565,52.385101],[13.185651,52.385233],[13.185733,52.385445],[13.18576,52.385585],[13.185803,52.38603],[13.185804,52.386428],[13.185812,52.386778],[13.185815,52.387046]]}},{"type":"Feature","properties":{"kind":"path","highway":"footway"},"geometry":{"type":"LineString","coordinates":[[13.184698,52.387791],[13.184701,52.387479],[13.184716,52.387385],[13.184717,52.387249],[13.184725,52.386984],[13.184859,52.386799],[13.185138,52.386421]]}},{"type":"Feature","properties":{"kind":"path","highway":"footway"},"geometry":{"type":"LineString","coordinates":[[13.183163,52.386477],[13.18302,52.386656],[13.182875,52.386863],[13.182813,52.386959],[13.182783,52.387208],[13.182783,52.387264],[13.182729,52.387732],[13.182706,52.387819],[13.182698,52.387877]]}},{"type":"Feature","properties":{"kind":"path","highway":"footway"},"geometry":{"type":"LineString","coordinates":[[13.179139,52.38238],[13.17926,52.382501],[13.179435,52.382599],[13.179748,52.382719],[13.180234,52.382887],[13.180935,52.383111],[13.181896,52.383398],[13.182296,52.383518],[13.182786,52.383674],[13.18331,52.383838],[13.183615,52.383932],[13.184125,52.384088]]}},{"type":"Feature","properties":{"kind":"path","highway":"footway"},"geometry":{"type":"LineString","coordinates":[[13.177194,52.387966],[13.177645,52.388067],[13.17777,52.388101],[13.177837,52.388199],[13.178183,52.38832],[13.178637,52.388418],[13.178801,52.388439],[13.179081,52.388435],[13.17937,52.388427],[13.179445,52.388424],[13.1796,52.388425],[13.180151,52.388416]]}},{"type":"Feature","properties":{"kind":"path","highway":"footway"},"geometry":{"type":"LineString","coordinates":[[13.185527,52.387766],[13.185391,52.387666],[13.185302,52.387584],[13.185234,52.387481],[13.185238,52.387388],[13.185233,52.387253],[13.185254,52.387076],[13.185341,52.386967]]}},{"type":"Feature","properties":{"kind":"path","highway":"footway"},"geometry":{"type":"LineString","coordinates":[[13.175107,52.386589],[13.174952,52.38648],[13.174762,52.386345],[13.174435,52.386136],[13.174386,52.386111],[13.174208,52.385943],[13.17418,52.385635],[13.174192,52.385118]]}},{"type":"Feature","properties":{"kind":"path","highway":"footway"},"geometry":{"type":"LineString","coordinates":[[13.183862,52.389706],[13.183662,52.389913],[13.183636,52.389954],[13.18362,52.389997],[13.18362,52.390114],[13.183553,52.390456],[13.183485,52.390716],[13.183443,52.390878],[13.183424,52.390987],[13.183399,52.391278]]}},{"type":"Feature","properties":{"kind":"path","highway":"footway"},"geometry":{"type":"LineString","coordinates":[[13.181716,52.386993],[13.181474,52.387399],[13.181421,52.387645],[13.181418,52.387746],[13.181521,52.387945],[13.181553,52.388004],[13.181589,52.388108],[13.181583,52.38849],[13.181566,52.389041]]}},{"type":"Feature","properties":{"kind":"path","highway":"footway"},"geometry":{"type":"LineString","coordinates":[[13.176562,52.387571],[13.17673,52.387595],[13.177368,52.387734],[13.177634,52.387775],[13.177787,52.387788],[13.178099,52.387816],[13.178579,52.387875],[13.179426,52.387893]]}},{"type":"Feature","properties":{"kind":"path","highway":"footway"},"geometry":{"type":"LineString","coordinates":[[13.181036,52.386268],[13.181157,52.386082],[13.181288,52.385922]]}},{"type":"Feature","properties":{"kind":"path","highway":"footway"},"geometry":{"type":"LineString","coordinates":[[13.173985,52.386292],[13.174081,52.386198],[13.174148,52.386161],[13.17424,52.386131],[13.174386,52.386111]]}},{"type":"Feature","properties":{"kind":"path","highway":"footway"},"geometry":{"type":"LineString","coordinates":[[13.175866,52.388827],[13.175967,52.38888],[13.176032,52.388896],[13.176359,52.388963]]}},{"type":"Feature","properties":{"kind":"path","highway":"footway"},"geometry":{"type":"LineString","coordinates":[[13.180791,52.389327],[13.180791,52.389376],[13.180777,52.389732]]}},{"type":"Feature","properties":{"kind":"path","highway":"footway"},"geometry":{"type":"LineString","coordinates":[[13.181334,52.389146],[13.181257,52.389092],[13.18119,52.389059],[13.181114,52.38905],[13.180921,52.389048],[13.180829,52.389049],[13.180759,52.389065],[13.180711,52.389114],[13.180711,52.389173]]}},{"type":"Feature","properties":{"kind":"path","highway":"footway"},"geometry":{"type":"LineString","coordinates":[[13.173948,52.391094],[13.174978,52.391118],[13.175495,52.391134],[13.175828,52.39115],[13.176017,52.391152],[13.177038,52.391164],[13.177862,52.391191],[13.17883,52.391206],[13.179677,52.391219],[13.180343,52.391228],[13.180868,52.391232],[13.182218,52.391256],[13.183399,52.391278],[13.184056,52.391298],[13.185611,52.391339]]}},{"type":"Feature","properties":{"kind":"path","highway":"footway"},"geometry":{"type":"LineString","coordinates":[[13.173509,52.387913],[13.174214,52.387936],[13.174865,52.387942],[13.175446,52.387958]]}},{"type":"Feature","properties":{"kind":"path","highway":"footway"},"geometry":{"type":"LineString","coordinates":[[13.172548,52.389597],[13.173079,52.389637],[13.173578,52.389891],[13.173858,52.390073],[13.174686,52.390542],[13.174998,52.390831],[13.174978,52.391118]]}},{"type":"Feature","properties":{"kind":"path","highway":"footway"},"geometry":{"type":"LineString","coordinates":[[13.182625,52.386308],[13.182911,52.385984],[13.182949,52.385941],[13.18235,52.385745],[13.181305,52.385409],[13.180704,52.385208],[13.179518,52.384813],[13.179338,52.385042]]}},{"type":"Feature","properties":{"kind":"path","highway":"footway"},"geometry":{"type":"LineString","coordinates":[[13.180504,52.38183],[13.180221,52.382176]]}},{"type":"Feature","properties":{"kind":"path","highway":"footway"},"geometry":{"type":"LineString","coordinates":[[13.180989,52.381978],[13.180692,52.382328],[13.180234,52.382887],[13.179955,52.383197]]}},{"type":"Feature","properties":{"kind":"path","highway":"service"},"geometry":{"type":"LineString","coordinates":[[13.189168,52.388614],[13.189099,52.388593],[13.188766,52.388505],[13.188478,52.388411],[13.188062,52.388268],[13.187927,52.388224],[13.187737,52.388158],[13.187391,52.388051],[13.187319,52.388033],[13.187162,52.387998],[13.18666,52.38789],[13.185941,52.387796],[13.185602,52.38777],[13.185527,52.387766],[13.185176,52.387769],[13.184698,52.387791],[13.184413,52.387865],[13.184175,52.387931],[13.18404,52.387976],[13.18384,52.38805],[13.183563,52.388158],[13.182969,52.388424],[13.182414,52.388672],[13.181714,52.388976],[13.181566,52.389041],[13.181376,52.38913]]}},{"type":"Feature","properties":{"kind":"path","highway":"footway"},"geometry":{"type":"LineString","coordinates":[[13.188402,52.389543],[13.188258,52.389441],[13.188169,52.389313],[13.188108,52.389235],[13.187853,52.389044],[13.1876,52.38888],[13.187455,52.388787],[13.187225,52.38867],[13.186961,52.388546],[13.18656,52.388347],[13.186401,52.388257],[13.186309,52.388204],[13.186182,52.388135],[13.185975,52.388064],[13.1858,52.388039],[13.185511,52.387987]]}},{"type":"Feature","properties":{"kind":"path","highway":"footway"},"geometry":{"type":"LineString","coordinates":[[13.17937,52.388427],[13.17944,52.38865],[13.179504,52.388776],[13.179616,52.388862],[13.179697,52.389048],[13.179753,52.389161]]}},{"type":"Feature","properties":{"kind":"path","highway":"service"},"geometry":{"type":"LineString","coordinates":[[13.175512,52.381963],[13.176955,52.382276],[13.17827,52.382652]]}},{"type":"Feature","properties":{"kind":"path","highway":"service"},"geometry":{"type":"LineString","coordinates":[[13.178051,52.384636],[13.176834,52.384237],[13.176275,52.384059],[13.175662,52.383866],[13.175441,52.38383]]}},{"type":"Feature","properties":{"kind":"path","highway":"service"},"geometry":{"type":"LineString","coordinates":[[13.178384,52.384347],[13.178106,52.384654]]}},{"type":"Feature","properties":{"kind":"path","highway":"service"},"geometry":{"type":"LineString","coordinates":[[13.178051,52.384636],[13.177995,52.384547],[13.177315,52.383899],[13.176963,52.383577],[13.176752,52.383359],[13.176694,52.383316]]}},{"type":"Feature","properties":{"kind":"path","highway":"footway"},"geometry":{"type":"LineString","coordinates":[[13.178106,52.384654],[13.177679,52.385112],[13.177452,52.385361],[13.177315,52.385514],[13.177283,52.385687],[13.177274,52.386178],[13.177269,52.386271],[13.17727,52.386372],[13.177485,52.386566],[13.177573,52.386707],[13.178176,52.386862],[13.178465,52.386964],[13.178515,52.386974],[13.179073,52.387118],[13.179598,52.387251],[13.180257,52.387407],[13.180753,52.387509],[13.181421,52.387645],[13.182048,52.387774],[13.182419,52.387833],[13.182698,52.387877],[13.182858,52.387903],[13.18384,52.38805]]}},{"type":"Feature","properties":{"kind":"path","highway":"footway"},"geometry":{"type":"LineString","coordinates":[[13.18114,52.389015],[13.181135,52.388994],[13.181124,52.38875],[13.181112,52.388584],[13.181103,52.388449],[13.181097,52.388159],[13.181028,52.388071],[13.180883,52.387987]]}},{"type":"Feature","properties":{"kind":"path","highway":"service"},"geometry":{"type":"LineString","coordinates":[[13.181376,52.38913],[13.181334,52.389146],[13.18126,52.389175],[13.181001,52.389175],[13.1808,52.389173],[13.180711,52.389173],[13.180639,52.389173],[13.180582,52.389173],[13.180518,52.389173],[13.180286,52.389173],[13.179753,52.389161],[13.179224,52.389127],[13.178957,52.389101],[13.178729,52.389096],[13.1785,52.389085],[13.178323,52.389074],[13.178026,52.389042],[13.17763,52.388997],[13.177487,52.388977],[13.177403,52.388965],[13.177003,52.388909],[13.176573,52.388795],[13.176159,52.388615],[13.175948,52.38848],[13.175753,52.388317],[13.175704,52.38827],[13.175577,52.388145],[13.175507,52.388052],[13.175446,52.387958],[13.175431,52.387893],[13.175413,52.387546],[13.175444,52.387083],[13.17545,52.386755],[13.175451,52.38667],[13.175447,52.386599],[13.175461,52.386164],[13.175475,52.385661],[13.17552,52.385132],[13.175562,52.384649],[13.175592,52.384081],[13.17561,52.384006],[13.175662,52.383866],[13.175699,52.383809],[13.17575,52.383772],[13.176752,52.383359],[13.177089,52.383226],[13.178258,52.382764]]}},{"type":"Feature","properties":{"kind":"path","highway":"footway"},"geometry":{"type":"LineString","coordinates":[[13.18114,52.389015],[13.18119,52.389059]]}},{"type":"Feature","properties":{"kind":"path","highway":"footway"},"geometry":{"type":"LineString","coordinates":[[13.181199,52.389316],[13.181621,52.389339]]}},{"type":"Feature","properties":{"kind":"path","highway":"footway"},"geometry":{"type":"LineString","coordinates":[[13.175948,52.38848],[13.175818,52.38859]]}},{"type":"Feature","properties":{"kind":"path","highway":"service"},"geometry":{"type":"LineString","coordinates":[[13.1808,52.389173],[13.180764,52.389198],[13.180741,52.389234],[13.180748,52.389282],[13.180759,52.389299],[13.180791,52.389327],[13.180855,52.389348],[13.180998,52.389351],[13.181056,52.389352],[13.181122,52.389342],[13.181199,52.389316],[13.181259,52.389278],[13.18128,52.389251],[13.181376,52.38913]]}},{"type":"Feature","properties":{"kind":"path","highway":"steps"},"geometry":{"type":"LineString","coordinates":[[13.180999,52.389288],[13.180998,52.389322]]}},{"type":"Feature","properties":{"kind":"path","highway":"footway"},"geometry":{"type":"LineString","coordinates":[[13.180998,52.389322],[13.180998,52.389351],[13.180997,52.389369]]}},{"type":"Feature","properties":{"kind":"path","highway":"footway"},"geometry":{"type":"LineString","coordinates":[[13.181001,52.389175],[13.180999,52.389288]]}},{"type":"Feature","properties":{"kind":"path","highway":"footway"},"geometry":{"type":"LineString","coordinates":[[13.181846,52.389055],[13.181813,52.389217],[13.181782,52.389362],[13.181718,52.389496],[13.181648,52.389572],[13.181583,52.389627],[13.181483,52.389711],[13.181405,52.389761],[13.18127,52.38979],[13.181129,52.389806],[13.180944,52.389811]]}},{"type":"Feature","properties":{"kind":"path","highway":"footway"},"geometry":{"type":"LineString","coordinates":[[13.185479,52.386473],[13.185219,52.386322],[13.185052,52.386227]]}},{"type":"Feature","properties":{"kind":"path","highway":"footway"},"geometry":{"type":"LineString","coordinates":[[13.185138,52.386421],[13.185219,52.386322],[13.185333,52.386184]]}},{"type":"Feature","properties":{"kind":"path","highway":"footway"},"geometry":{"type":"LineString","coordinates":[[13.179134,52.390555],[13.178811,52.390626]]}},{"type":"Feature","properties":{"kind":"path","highway":"service"},"geometry":{"type":"LineString","coordinates":[[13.178243,52.382677],[13.178232,52.382707],[13.178237,52.382737],[13.178258,52.382764],[13.178288,52.382783],[13.178326,52.382796],[13.178368,52.382802],[13.178411,52.3828],[13.178451,52.382791],[13.178484,52.382776],[13.178509,52.382755],[13.178524,52.382731],[13.178526,52.382702],[13.178513,52.382674],[13.178486,52.38265],[13.178448,52.382632],[13.178402,52.382623],[13.178353,52.382623],[13.178308,52.382633],[13.17827,52.382652],[13.178243,52.382677]]}},{"type":"Feature","properties":{"kind":"path","highway":"service"},"geometry":{"type":"LineString","coordinates":[[13.18233,52.383991],[13.18232,52.384025],[13.18233,52.38406],[13.182358,52.38409],[13.1824,52.384114],[13.182453,52.384128],[13.18251,52.384131],[13.182566,52.384122],[13.182614,52.384103],[13.182649,52.384075],[13.182667,52.384042],[13.182667,52.384006],[13.182648,52.383973],[13.182612,52.383946],[13.182564,52.383927],[13.182508,52.383919],[13.182451,52.383922],[13.182398,52.383936],[13.182356,52.38396],[13.18233,52.383991]]}},{"type":"Feature","properties":{"kind":"path","highway":"service"},"geometry":{"type":"LineString","coordinates":[[13.185771,52.387051],[13.185717,52.387095],[13.185708,52.387128],[13.185761,52.387175],[13.185815,52.387193],[13.185853,52.387206],[13.18589,52.387195],[13.185921,52.387177],[13.185941,52.387155],[13.185948,52.38713],[13.185943,52.387105],[13.185925,52.387082],[13.185897,52.387063],[13.18586,52.387051],[13.185815,52.387046],[13.185771,52.387051]]}},{"type":"Feature","properties":{"kind":"path","highway":"footway"},"geometry":{"type":"LineString","coordinates":[[13.18331,52.383838],[13.183513,52.383592],[13.183823,52.383687],[13.184334,52.383845],[13.184125,52.384088],[13.18383,52.384428]]}},{"type":"Feature","properties":{"kind":"path","highway":"footway"},"geometry":{"type":"LineString","coordinates":[[13.182564,52.383927],[13.182786,52.383674],[13.183257,52.383133]]}},{"type":"Feature","properties":{"kind":"path","highway":"footway"},"geometry":{"type":"LineString","coordinates":[[13.177537,52.385659],[13.177523,52.385687],[13.177525,52.385716],[13.177543,52.385744],[13.177575,52.385766],[13.177617,52.385781],[13.177664,52.385787],[13.177712,52.385782],[13.177754,52.385769],[13.177786,52.385748],[13.177806,52.385722],[13.177812,52.385694],[13.177802,52.385666],[13.177778,52.385641],[13.177743,52.385623],[13.177699,52.385612],[13.177653,52.38561],[13.177606,52.385618],[13.177566,52.385635],[13.177537,52.385659]]}},{"type":"Feature","properties":{"kind":"path","highway":"footway"},"geometry":{"type":"LineString","coordinates":[[13.182599,52.385122],[13.183041,52.38461],[13.183327,52.384271],[13.183615,52.383932],[13.183823,52.383687]]}},{"type":"Feature","properties":{"kind":"path","highway":"footway"},"geometry":{"type":"LineString","coordinates":[[13.184044,52.386761],[13.184306,52.386436]]}},{"type":"Feature","properties":{"kind":"path","highway":"footway"},"geometry":{"type":"LineString","coordinates":[[13.18475,52.390897],[13.184503,52.390893],[13.183443,52.390878]]}},{"type":"Feature","properties":{"kind":"path","highway":"footway"},"geometry":{"type":"LineString","coordinates":[[13.18362,52.390114],[13.18404,52.390171],[13.184287,52.390233],[13.184467,52.39033]]}},{"type":"Feature","properties":{"kind":"path","highway":"footway"},"geometry":{"type":"LineString","coordinates":[[13.182366,52.389193],[13.182342,52.389411],[13.182378,52.389509],[13.182412,52.389601],[13.182477,52.389692],[13.1826,52.389863],[13.182702,52.389997],[13.182734,52.390059],[13.18275,52.390172],[13.182743,52.390441],[13.182807,52.390575]]}},{"type":"Feature","properties":{"kind":"path","highway":"footway"},"geometry":{"type":"LineString","coordinates":[[13.181615,52.383728],[13.181896,52.383398],[13.182362,52.382852],[13.18267,52.382491]]}},{"type":"Feature","properties":{"kind":"path","highway":"service"},"geometry":{"type":"LineString","coordinates":[[13.173487,52.382469],[13.172503,52.382642]]}},{"type":"Feature","properties":{"kind":"path","highway":"footway"},"geometry":{"type":"LineString","coordinates":[[13.176737,52.385131],[13.175962,52.385128],[13.17552,52.385132]]}},{"type":"Feature","properties":{"kind":"path","highway":"footway"},"geometry":{"type":"LineString","coordinates":[[13.17552,52.385132],[13.17519,52.385128],[13.174829,52.385124],[13.174192,52.385118]]}},{"type":"Feature","properties":{"kind":"path","highway":"footway"},"geometry":{"type":"LineString","coordinates":[[13.17509,52.386746],[13.174927,52.386861],[13.173935,52.386847],[13.17342,52.386848],[13.173415,52.386449],[13.17341,52.386036],[13.173405,52.385627],[13.17342,52.38511],[13.174192,52.385118]]}},{"type":"Feature","properties":{"kind":"path","highway":"footway"},"geometry":{"type":"LineString","coordinates":[[13.17418,52.385635],[13.173405,52.385627]]}},{"type":"Feature","properties":{"kind":"path","highway":"footway"},"geometry":{"type":"LineString","coordinates":[[13.174952,52.38648],[13.173943,52.386459],[13.173415,52.386449]]}},{"type":"Feature","properties":{"kind":"path","highway":"footway"},"geometry":{"type":"LineString","coordinates":[[13.17341,52.386036],[13.173565,52.38604],[13.173688,52.386053],[13.173742,52.386121],[13.173801,52.38621],[13.173877,52.386264],[13.173985,52.386292]]}},{"type":"Feature","properties":{"kind":"path","highway":"footway"},"geometry":{"type":"LineString","coordinates":[[13.173945,52.386345],[13.173943,52.386459],[13.173935,52.386847]]}},{"type":"Feature","properties":{"kind":"path","highway":"footway"},"geometry":{"type":"LineString","coordinates":[[13.173509,52.387913],[13.173342,52.387865],[13.173031,52.388556],[13.172878,52.388902],[13.172548,52.389597]]}},{"type":"Feature","properties":{"kind":"path","highway":"footway"},"geometry":{"type":"LineString","coordinates":[[13.17347,52.388664],[13.173267,52.388588],[13.173031,52.388556]]}},{"type":"Feature","properties":{"kind":"path","highway":"footway"},"geometry":{"type":"LineString","coordinates":[[13.172548,52.389597],[13.172446,52.38999],[13.17243,52.390074],[13.172376,52.390353],[13.172333,52.390681],[13.172307,52.390991],[13.172588,52.391]]}},{"type":"Feature","properties":{"kind":"path","highway":"footway"},"geometry":{"type":"LineString","coordinates":[[13.172903,52.390341],[13.17243,52.390074]]}},{"type":"Feature","properties":{"kind":"path","highway":"footway"},"geometry":{"type":"LineString","coordinates":[[13.174409,52.389148],[13.174953,52.388753],[13.175274,52.388541],[13.175704,52.38827]]}},{"type":"Feature","properties":{"kind":"path","highway":"footway"},"geometry":{"type":"LineString","coordinates":[[13.175745,52.388824],[13.175465,52.389038],[13.174936,52.389442],[13.174537,52.389747]]}},{"type":"Feature","properties":{"kind":"path","highway":"footway"},"geometry":{"type":"LineString","coordinates":[[13.180151,52.388416],[13.180387,52.388435],[13.180698,52.388484]]}},{"type":"Feature","properties":{"kind":"path","highway":"footway"},"geometry":{"type":"LineString","coordinates":[[13.173948,52.391094],[13.173541,52.391086],[13.172635,52.391066],[13.172588,52.391]]}},{"type":"Feature","properties":{"kind":"path","highway":"footway"},"geometry":{"type":"LineString","coordinates":[[13.181483,52.389711],[13.181923,52.389714],[13.181907,52.390068]]}},{"type":"Feature","properties":{"kind":"path","highway":"footway"},"geometry":{"type":"LineString","coordinates":[[13.182241,52.389466],[13.182085,52.389594],[13.181923,52.389714]]}},{"type":"Feature","properties":{"kind":"path","highway":"footway"},"geometry":{"type":"LineString","coordinates":[[13.181907,52.390068],[13.181891,52.390432]]}},{"type":"Feature","properties":{"kind":"path","highway":"service"},"geometry":{"type":"LineString","coordinates":[[13.178071,52.390109],[13.177117,52.390175]]}},{"type":"Feature","properties":{"kind":"path","highway":"footway"},"geometry":{"type":"LineString","coordinates":[[13.173415,52.390997],[13.173541,52.391086]]}},{"type":"Feature","properties":{"kind":"path","highway":"footway"},"geometry":{"type":"LineString","coordinates":[[13.186188,52.388532],[13.186167,52.388576],[13.186173,52.388622],[13.186204,52.388664],[13.186256,52.388697],[13.186324,52.388718],[13.186393,52.388723],[13.18646,52.388715],[13.18652,52.388694],[13.186567,52.388664],[13.186596,52.388626],[13.186604,52.388584],[13.18659,52.388542],[13.186556,52.388506],[13.186505,52.388478],[13.186442,52.388461],[13.186367,52.388456],[13.186294,52.388468],[13.186232,52.388494],[13.186188,52.388532]]}},{"type":"Feature","properties":{"kind":"path","highway":"footway"},"geometry":{"type":"LineString","coordinates":[[13.186401,52.388257],[13.186376,52.388371],[13.186367,52.388456]]}},{"type":"Feature","properties":{"kind":"path","highway":"footway"},"geometry":{"type":"LineString","coordinates":[[13.18659,52.388542],[13.186724,52.3886],[13.186821,52.388607],[13.186932,52.38863]]}},{"type":"Feature","properties":{"kind":"path","highway":"footway"},"geometry":{"type":"LineString","coordinates":[[13.1822,52.386652],[13.182875,52.386863]]}},{"type":"Feature","properties":{"kind":"path","highway":"footway"},"geometry":{"type":"LineString","coordinates":[[13.181496,52.386426],[13.181634,52.386968]]}},{"type":"Feature","properties":{"kind":"path","highway":"footway"},"geometry":{"type":"LineString","coordinates":[[13.180753,52.387509],[13.181131,52.386811],[13.181462,52.386415],[13.181615,52.386231]]}},{"type":"Feature","properties":{"kind":"path","highway":"footway"},"geometry":{"type":"LineString","coordinates":[[13.176737,52.385131],[13.177452,52.385361]]}},{"type":"Feature","properties":{"kind":"path","highway":"footway"},"geometry":{"type":"LineString","coordinates":[[13.175941,52.385535],[13.17671,52.385552]]}},{"type":"Feature","properties":{"kind":"path","highway":"footway"},"geometry":{"type":"LineString","coordinates":[[13.17519,52.385128],[13.17516,52.385655],[13.175107,52.386589]]}},{"type":"Feature","properties":{"kind":"path","highway":"footway"},"geometry":{"type":"LineString","coordinates":[[13.184793,52.390319],[13.184745,52.390541],[13.184632,52.390748],[13.184503,52.390893]]}},{"type":"Feature","properties":{"kind":"path","highway":"footway"},"geometry":{"type":"LineString","coordinates":[[13.182477,52.389692],[13.182406,52.389782],[13.182384,52.390071],[13.182368,52.390441]]}},{"type":"Feature","properties":{"kind":"path","highway":"footway"},"geometry":{"type":"LineString","coordinates":[[13.183041,52.38461],[13.182204,52.384355],[13.181631,52.384165],[13.180392,52.383765],[13.179651,52.383532],[13.179182,52.383378],[13.178981,52.383302],[13.178719,52.383293],[13.178452,52.383306]]}}]}
